{"type": "FeatureCollection", "features": [{"type": "Feature", "properties": {"norad_id": 2807, "name": "OPS 7218 (TRANSIT 16)", "group": "nnss", "lat": 14.585501425158194, "lon": -6.12957468438892, "alt_km": 1067.7842011343182, "timestamp": "2025-12-19T16:54:44.529707+00:00", "meta": {"OBJECT_NAME": "OPS 7218 (TRANSIT 16)", "OBJECT_ID": "1967-048A", "EPOCH": "2025-12-19T06:13:36.695136", "MEAN_MOTION": 13.50723591, "ECCENTRICITY": 0.00221335, "INCLINATION": 89.6731, "RA_OF_ASC_NODE": 353.8, "ARG_OF_PERICENTER": 96.6947, "MEAN_ANOMALY": 274.5627, "EPHEMERIS_TYPE": 0, "CLASSIFICATION_TYPE": "U", "NORAD_CAT_ID": 2807, "ELEMENT_SET_NO": 999, "REV_AT_EPOCH": 88364, "BSTAR": 0.00016003604, "MEAN_MOTION_DOT": 1.14e-06, "MEAN_MOTION_DDOT": 0}, "tle": {"line1": "1 02807U 67048A   25353.25945249  .00000114  00000+0  16004-3 0  9999", "line2": "2 02807  89.6731 353.8000 0022133  96.6947 274.5627 13.50723591883642"}}, "geometry": {"type": "Point", "coordinates": [-6.12957468438892, 14.585501425158194]}}, {"type": "Feature", "properties": {"norad_id": 2965, "name": "OPS 4947 (TRANSIT 17)", "group": "nnss", "lat": 32.55576567481244, "lon": -156.57527417760275, "alt_km": 1043.652085205903, "timestamp": "2025-12-19T16:54:44.529729+00:00", "meta": {"OBJECT_NAME": "OPS 4947 (TRANSIT 17)", "OBJECT_ID": "1967-092A", "EPOCH": "2025-12-19T04:05:22.989408", "MEAN_MOTION": 13.5345517, "ECCENTRICITY": 0.00466173, "INCLINATION": 89.249, "RA_OF_ASC_NODE": 23.9452, "ARG_OF_PERICENTER": 215.3411, "MEAN_ANOMALY": 210.8168, "EPHEMERIS_TYPE": 0, "CLASSIFICATION_TYPE": "U", "NORAD_CAT_ID": 2965, "ELEMENT_SET_NO": 999, "REV_AT_EPOCH": 87184, "BSTAR": 0.00019991409, "MEAN_MOTION_DOT": 1.46e-06, "MEAN_MOTION_DDOT": 0}, "tle": {"line1": "1 02965U 67092A   25353.17040497  .00000146  00000+0  19991-3 0  9998", "line2": "2 02965  89.2490  23.9452 0046617 215.3411 210.8168 13.53455170871840"}}, "geometry": {"type": "Point", "coordinates": [-156.57527417760275, 32.55576567481244]}}, {"type": "Feature", "properties": {"norad_id": 3133, "name": "OPS 7034 (TRANSIT 18)", "group": "nnss", "lat": -70.61637402999487, "lon": 93.57813697349148, "alt_km": 1084.582743750425, "timestamp": "2025-12-19T16:54:44.529743+00:00", "meta": {"OBJECT_NAME": "OPS 7034 (TRANSIT 18)", "OBJECT_ID": "1968-012A", "EPOCH": "2025-12-19T05:49:59.436192", "MEAN_MOTION": 13.51567168, "ECCENTRICITY": 0.00744825, "INCLINATION": 90.0283, "RA_OF_ASC_NODE": 273.6573, "ARG_OF_PERICENTER": 150.3733, "MEAN_ANOMALY": 14.5612, "EPHEMERIS_TYPE": 0, "CLASSIFICATION_TYPE": "U", "NORAD_CAT_ID": 3133, "ELEMENT_SET_NO": 999, "REV_AT_EPOCH": 57006, "BSTAR": 0.00015105072, "MEAN_MOTION_DOT": 1.1e-06, "MEAN_MOTION_DDOT": 0}, "tle": {"line1": "1 03133U 68012A   25353.24304903  .00000110  00000+0  15105-3 0  9996", "line2": "2 03133  90.0283 273.6573 0074482 150.3733  14.5612 13.51567168570064"}}, "geometry": {"type": "Point", "coordinates": [93.57813697349148, -70.61637402999487]}}, {"type": "Feature", "properties": {"norad_id": 4507, "name": "NNSS 19 (TRANSIT 19)", "group": "nnss", "lat": -33.341863676792656, "lon": 54.535270957841, "alt_km": 1008.17505605735, "timestamp": "2025-12-19T16:54:44.529755+00:00", "meta": {"OBJECT_NAME": "NNSS 19 (TRANSIT 19)", "OBJECT_ID": "1970-067A", "EPOCH": "2025-12-19T01:37:32.174400", "MEAN_MOTION": 13.51316318, "ECCENTRICITY": 0.01702732, "INCLINATION": 90.0051, "RA_OF_ASC_NODE": 234.5383, "ARG_OF_PERICENTER": 274.8647, "MEAN_ANOMALY": 83.3083, "EPHEMERIS_TYPE": 0, "CLASSIFICATION_TYPE": "U", "NORAD_CAT_ID": 4507, "ELEMENT_SET_NO": 999, "REV_AT_EPOCH": 72307, "BSTAR": 0.00012869775, "MEAN_MOTION_DOT": 9.9e-07, "MEAN_MOTION_DDOT": 0}, "tle": {"line1": "1 04507U 70067A   25353.06773350  .00000099  00000+0  12870-3 0  9993", "line2": "2 04507  90.0051 234.5383 0170273 274.8647  83.3083 13.51316318723075"}}, "geometry": {"type": "Point", "coordinates": [54.535270957841, -33.341863676792656]}}, {"type": "Feature", "properties": {"norad_id": 6909, "name": "NNSS 20 (TRANSIT 20)", "group": "nnss", "lat": 71.7552379200515, "lon": -104.61370415325318, "alt_km": 875.6022983636421, "timestamp": "2025-12-19T16:54:44.529767+00:00", "meta": {"OBJECT_NAME": "NNSS 20 (TRANSIT 20)", "OBJECT_ID": "1973-081A", "EPOCH": "2025-12-19T04:18:57.343104", "MEAN_MOTION": 13.71437396, "ECCENTRICITY": 0.01564672, "INCLINATION": 89.8562, "RA_OF_ASC_NODE": 254.9577, "ARG_OF_PERICENTER": 59.2456, "MEAN_ANOMALY": 302.4009, "EPHEMERIS_TYPE": 0, "CLASSIFICATION_TYPE": "U", "NORAD_CAT_ID": 6909, "ELEMENT_SET_NO": 999, "REV_AT_EPOCH": 80449, "BSTAR": 0.00022822694, "MEAN_MOTION_DOT": 2.35e-06, "MEAN_MOTION_DDOT": 0}, "tle": {"line1": "1 06909U 73081A   25353.17983036  .00000235  00000+0  22823-3 0  9997", "line2": "2 06909  89.8562 254.9577 0156467  59.2456 302.4009 13.71437396804490"}}, "geometry": {"type": "Point", "coordinates": [-104.61370415325318, 71.7552379200515]}}, {"type": "Feature", "properties": {"norad_id": 10457, "name": "TRANSAT", "group": "nnss", "lat": 19.409893797139702, "lon": -101.77364670222819, "alt_km": 1057.1246384417427, "timestamp": "2025-12-19T16:54:44.529778+00:00", "meta": {"OBJECT_NAME": "TRANSAT", "OBJECT_ID": "1977-106A", "EPOCH": "2025-12-19T05:42:04.199040", "MEAN_MOTION": 13.48944505, "ECCENTRICITY": 0.00260175, "INCLINATION": 89.648, "RA_OF_ASC_NODE": 78.367, "ARG_OF_PERICENTER": 170.8394, "MEAN_ANOMALY": 242.5458, "EPHEMERIS_TYPE": 0, "CLASSIFICATION_TYPE": "U", "NORAD_CAT_ID": 10457, "ELEMENT_SET_NO": 999, "REV_AT_EPOCH": 36831, "BSTAR": 9.3687484e-05, "MEAN_MOTION_DOT": 6.9e-07, "MEAN_MOTION_DDOT": 0}, "tle": {"line1": "1 10457U 77106A   25353.23754860  .00000069  00000+0  93687-4 0  9992", "line2": "2 10457  89.6480  78.3670 0026017 170.8394 242.5458 13.48944505368317"}}, "geometry": {"type": "Point", "coordinates": [-101.77364670222819, 19.409893797139702]}}, {"type": "Feature", "properties": {"norad_id": 12458, "name": "NOVA 1", "group": "nnss", "lat": 40.36026275337831, "lon": -88.83833022078677, "alt_km": 1161.802237052405, "timestamp": "2025-12-19T16:54:44.529789+00:00", "meta": {"OBJECT_NAME": "NOVA 1", "OBJECT_ID": "1981-044A", "EPOCH": "2025-12-19T05:27:45.320832", "MEAN_MOTION": 13.23278978, "ECCENTRICITY": 0.00158869, "INCLINATION": 89.8528, "RA_OF_ASC_NODE": 91.2936, "ARG_OF_PERICENTER": 88.0892, "MEAN_ANOMALY": 299.9525, "EPHEMERIS_TYPE": 0, "CLASSIFICATION_TYPE": "U", "NORAD_CAT_ID": 12458, "ELEMENT_SET_NO": 999, "REV_AT_EPOCH": 15272, "BSTAR": 0.00010592238, "MEAN_MOTION_DOT": 5.4e-07, "MEAN_MOTION_DDOT": 0}, "tle": {"line1": "1 12458U 81044A   25353.22760788  .00000054  00000+0  10592-3 0  9993", "line2": "2 12458  89.8528  91.2936 0015886  88.0892 299.9525 13.23278978152723"}}, "geometry": {"type": "Point", "coordinates": [-88.83833022078677, 40.36026275337831]}}, {"type": "Feature", "properties": {"norad_id": 15362, "name": "NOVA 3", "group": "nnss", "lat": 6.4094578394443005, "lon": 80.60298717883248, "alt_km": 1161.927549759259, "timestamp": "2025-12-19T16:54:44.529800+00:00", "meta": {"OBJECT_NAME": "NOVA 3", "OBJECT_ID": "1984-110A", "EPOCH": "2025-12-19T06:15:39.981024", "MEAN_MOTION": 13.23045253, "ECCENTRICITY": 0.00300483, "INCLINATION": 90.1221, "RA_OF_ASC_NODE": 80.6115, "ARG_OF_PERICENTER": 313.2498, "MEAN_ANOMALY": 100.3997, "EPHEMERIS_TYPE": 0, "CLASSIFICATION_TYPE": "U", "NORAD_CAT_ID": 15362, "ELEMENT_SET_NO": 999, "REV_AT_EPOCH": 98785, "BSTAR": 9.5268173e-05, "MEAN_MOTION_DOT": 4.8e-07, "MEAN_MOTION_DDOT": 0}, "tle": {"line1": "1 15362U 84110A   25353.26087941  .00000048  00000+0  95268-4 0  9991", "line2": "2 15362  90.1221  80.6115 0030048 313.2498 100.3997 13.23045253987854"}}, "geometry": {"type": "Point", "coordinates": [80.60298717883248, 6.4094578394443005]}}, {"type": "Feature", "properties": {"norad_id": 15935, "name": "OSCAR 30", "group": "nnss", "lat": 52.92365034318477, "lon": 99.7418264390143, "alt_km": 994.4781604680838, "timestamp": "2025-12-19T16:54:44.529811+00:00", "meta": {"OBJECT_NAME": "OSCAR 30", "OBJECT_ID": "1985-066A", "EPOCH": "2025-12-19T06:00:30.951936", "MEAN_MOTION": 13.36079241, "ECCENTRICITY": 0.01692422, "INCLINATION": 90.1656, "RA_OF_ASC_NODE": 99.9537, "ARG_OF_PERICENTER": 65.7372, "MEAN_ANOMALY": 323.6687, "EPHEMERIS_TYPE": 0, "CLASSIFICATION_TYPE": "U", "NORAD_CAT_ID": 15935, "ELEMENT_SET_NO": 999, "REV_AT_EPOCH": 96540, "BSTAR": 0.00010997236, "MEAN_MOTION_DOT": 7.1e-07, "MEAN_MOTION_DDOT": 0}, "tle": {"line1": "1 15935U 85066A   25353.25035824  .00000071  00000+0  10997-3 0  9991", "line2": "2 15935  90.1656  99.9537 0169242  65.7372 323.6687 13.36079241965403"}}, "geometry": {"type": "Point", "coordinates": [99.7418264390143, 52.92365034318477]}}, {"type": "Feature", "properties": {"norad_id": 15936, "name": "OSCAR 24", "group": "nnss", "lat": 53.19266816497622, "lon": -87.33180532306804, "alt_km": 1046.2738675313358, "timestamp": "2025-12-19T16:54:44.529822+00:00", "meta": {"OBJECT_NAME": "OSCAR 24", "OBJECT_ID": "1985-066B", "EPOCH": "2025-12-19T05:39:09.152640", "MEAN_MOTION": 13.35936599, "ECCENTRICITY": 0.01703727, "INCLINATION": 90.1792, "RA_OF_ASC_NODE": 92.4203, "ARG_OF_PERICENTER": 72.2157, "MEAN_ANOMALY": 317.8855, "EPHEMERIS_TYPE": 0, "CLASSIFICATION_TYPE": "U", "NORAD_CAT_ID": 15936, "ELEMENT_SET_NO": 999, "REV_AT_EPOCH": 96730, "BSTAR": 9.8903992e-05, "MEAN_MOTION_DOT": 6.5e-07, "MEAN_MOTION_DDOT": 0}, "tle": {"line1": "1 15936U 85066B   25353.23552260  .00000065  00000+0  98904-4 0  9996", "line2": "2 15936  90.1792  92.4203 0170372  72.2157 317.8855 13.35936599967303"}}, "geometry": {"type": "Point", "coordinates": [-87.33180532306804, 53.19266816497622]}}]}